<?xml version="1.0" encoding="UTF-8"?><kml xmlns="http://www.opengis.net/kml/2.2"><Document><Folder><name>Parcels</name><Placemark><name>Plot A (with courtyard)</name><ExtendedData><Data name="owner"><value>Alice</value></Data><Data name="zone"><value>R1</value></Data></ExtendedData><Polygon><outerBoundaryIs><LinearRing><coordinates>77.59,12.97,0.0 77.599,12.97,0.0 77.599,12.979,0.0 77.59,12.979,0.0 77.59,12.97,0.0</coordinates></LinearRing></outerBoundaryIs><innerBoundaryIs><LinearRing><coordinates>77.593,12.973,0.0 77.596,12.973,0.0 77.596,12.976,0.0 77.593,12.976,0.0 77.593,12.973,0.0</coordinates></LinearRing></innerBoundaryIs></Polygon></Placemark><Placemark><name>Plot B (two parts)</name><ExtendedData><Data name="owner"><value>Bob</value></Data><Data name="zone"><value>R2</value></Data></ExtendedData><MultiGeometry><Polygon><outerBoundaryIs><LinearRing><coordinates>77.61,12.97,0.0 77.62,12.97,0.0 77.62,12.98,0.0 77.61,12.98,0.0 77.61,12.97,0.0</coordinates></LinearRing></outerBoundaryIs></Polygon><Polygon><outerBoundaryIs><LinearRing><coordinates>77.63,12.97,0.0 77.64,12.97,0.0 77.64,12.98,0.0 77.63,12.97,0.0</coordinates></LinearRing></outerBoundaryIs></Polygon></MultiGeometry></Placemark></Folder><Folder><name>Roads</name><Placemark><name>MG Road</name><LineString><coordinates>77.59,12.97,0.0 77.6,12.99,0.0 77.62,12.99,0.0</coordinates></LineString></Placemark></Folder><Folder><name>Other</name><Placemark><name>Water well</name><Point><coordinates>77.595,12.975,0</coordinates></Point></Placemark><Placemark><name>Mixed (point + line)</name><MultiGeometry><Point><coordinates>77.5,12.9,0</coordinates></Point><LineString><coordinates>77.5,12.9,0.0 77.6,12.95,0.0</coordinates></LineString></MultiGeometry></Placemark><Placemark><name>Placemark without geometry</name></Placemark></Folder></Document></kml>